[{"station": "AWE", "name_en": "AsiaWorld-Expo", "name_zh": "博覽館", "exit": "A", "lat": 22.32225360525092, "lng": 113.94370679533343}, {"station": "AWE", "name_en": "AsiaWorld-Expo", "name_zh": "博覽館", "exit": "B", "lat": 22.321622862036715, "lng": 113.94078234896469}, {"station": "AIR", "name_en": "Airport", "name_zh": "機場", "exit": "A", "lat": 22.315241960069976, "lng": 113.93653095279092}, {"station": "AIR", "name_en": "Airport", "name_zh": "機場", "exit": "B", "lat": 22.315841092799115, "lng": 113.93630658062233}, {"station": "AIR", "name_en": "Airport", "name_zh": "機場", "exit": "C", "lat": 22.316442445438994, "lng": 113.93608137772321}, {"station": "AIR", "name_en": "Airport", "name_zh": "機場", "exit": "D", "lat": 22.314966126243718, "lng": 113.93666780800474}, {"station": "AIR", "name_en": "Airport", "name_zh": "機場", "exit": "E", "lat": 22.316737393045162, "lng": 113.93602133700391}, {"station": "TSY", "name_en": "Tsing Yi", "name_zh": "青衣", "exit": "A1", "lat": 22.359262944046954, "lng": 114.10716765766374}, {"station": "TSY", "name_en": "Tsing Yi", "name_zh": "青衣", "exit": "A2", "lat": 22.358901963605003, "lng": 114.10773094166744}, {"station": "TSY", "name_en": "Tsing Yi", "name_zh": "青衣", "exit": "B", "lat": 22.357896366627756, "lng": 114.10737095631282}, {"station": "TSY", "name_en": "Tsing Yi", "name_zh": "青衣", "exit": "C", "lat": 22.35772772648254, "lng": 114.10711016939672}, {"station": "TSY", "name_en": "Tsing Yi", "name_zh": "青衣", "exit": "F", "lat": 22.358486546150203, "lng": 114.10770202057077}, {"station": "TSY", "name_en": "Tsing Yi", "name_zh": "青衣", "exit": "G", "lat": 22.358441376844382, "lng": 114.10766320819552}, {"station": "KOW", "name_en": "Kowloon", "name_zh": "九龍", "exit": "A", "lat": 22.305617567916016, "lng": 114.16223142820078}, {"station": "KOW", "name_en": "Kowloon", "name_zh": "九龍", "exit": "B", "lat": 22.30407325169374, "lng": 114.16134844194816}, {"station": "KOW", "name_en": "Kowloon", "name_zh": "九龍", "exit": "C1", "lat": 22.30479575506878, "lng": 114.16193065987282}, {"station": "KOW", "name_en": "Kowloon", "name_zh": "九龍", "exit": "C2", "lat": 22.30488823320968, "lng": 114.16168193450684}, {"station": "KOW", "name_en": "Kowloon", "name_zh": "九龍", "exit": "D1", "lat": 22.305066605828415, "lng": 114.16121246278323}, {"station": "KOW", "name_en": "Kowloon", "name_zh": "九龍", "exit": "D2", "lat": 22.304970767062365, "lng": 114.16146337363345}, {"station": "KOW", "name_en": "Kowloon", "name_zh": "九龍", "exit": "E1", "lat": 22.304497128819598, "lng": 114.16068259763384}, {"station": "KOW", "name_en": "Kowloon", "name_zh": "九龍", "exit": "E2", "lat": 22.304757057072038, "lng": 114.16077550241862}, {"station": "KOW", "name_en": "Kowloon", "name_zh": "九龍", "exit": "E3", "lat": 22.304937680516392, "lng": 114.16088947634066}, {"station": "KOW", "name_en": "Kowloon", "name_zh": "九龍", "exit": "E4", "lat": 22.305342151974937, "lng": 114.16106889524436}, {"station": "KOW", "name_en": "Kowloon", "name_zh": "九龍", "exit": "E5", "lat": 22.305557720488345, "lng": 114.16115002436551}, {"station": "KOW", "name_en": "Kowloon", "name_zh": "九龍", "exit": "E6", "lat": 22.3058116005668, "lng": 114.16127037720953}, {"station": "HOK", "name_en": "Hong Kong", "name_zh": "香港", "exit": "A", "lat": 22.284342195078665, "lng": 114.15828235359147}, {"station": "HOK", "name_en": "Hong Kong", "name_zh": "香港", "exit": "B1", "lat": 22.284104489321756, "lng": 114.1587500271779}, {"station": "HOK", "name_en": "Hong Kong", "name_zh": "香港", "exit": "B2", "lat": 22.284128638847406, "lng": 114.15900967118162}, {"station": "HOK", "name_en": "Hong Kong", "name_zh": "香港", "exit": "C", "lat": 22.28316205198412, "lng": 114.15714381904368}, {"station": "HOK", "name_en": "Hong Kong", "name_zh": "香港", "exit": "D", "lat": 22.284915992724734, "lng": 114.15735013317197}, {"station": "HOK", "name_en": "Hong Kong", "name_zh": "香港", "exit": "E", "lat": 22.285081040840893, "lng": 114.15724461163059}, {"station": "HOK", "name_en": "Hong Kong", "name_zh": "香港", "exit": "F", "lat": 22.285274016192187, "lng": 114.15847948569282}, {"station": "SUN", "name_en": "Sunny Bay", "name_zh": "欣澳", "exit": "A", "lat": 22.33193804334129, "lng": 114.02867404004091}, {"station": "DIS", "name_en": "Disneyland Resort", "name_zh": "迪士尼", "exit": "A", "lat": 22.31520720234648, "lng": 114.04538507436155}, {"station": "SHS", "name_en": "Sheung Shui", "name_zh": "上水", "exit": "A1", "lat": 22.50136972232055, "lng": 114.1276146716583}, {"station": "SHS", "name_en": "Sheung Shui", "name_zh": "上水", "exit": "A2", "lat": 22.501604337712312, "lng": 114.12729126066986}, {"station": "SHS", "name_en": "Sheung Shui", "name_zh": "上水", "exit": "A3", "lat": 22.501684938974787, "lng": 114.12762085777985}, {"station": "SHS", "name_en": "Sheung Shui", "name_zh": "上水", "exit": "A4", "lat": 22.501547467008855, "lng": 114.12779079773932}, {"station": "SHS", "name_en": "Sheung Shui", "name_zh": "上水", "exit": "B1", "lat": 22.500791616489913, "lng": 114.12827472854241}, {"station": "SHS", "name_en": "Sheung Shui", "name_zh": "上水", "exit": "B2", "lat": 22.5009768035824, "lng": 114.12845775234543}, {"station": "SHS", "name_en": "Sheung Shui", "name_zh": "上水", "exit": "C", "lat": 22.50138254910647, "lng": 114.12747897581335}, {"station": "SHS", "name_en": "Sheung Shui", "name_zh": "上水", "exit": "D1", "lat": 22.501693005417142, "lng": 114.12768756364927}, {"station": "SHS", "name_en": "Sheung Shui", "name_zh": "上水", "exit": "D2", "lat": 22.50146099161976, "lng": 114.12790832635788}, {"station": "SHS", "name_en": "Sheung Shui", "name_zh": "上水", "exit": "D3", "lat": 22.501503380985852, "lng": 114.1278512631248}, {"station": "SHS", "name_en": "Sheung Shui", "name_zh": "上水", "exit": "E", "lat": 22.501074113677106, "lng": 114.12836302052058}, {"station": "FAN", "name_en": "Fanling", "name_zh": "粉嶺", "exit": "A1", "lat": 22.491995573649408, "lng": 114.13900351144376}, {"station": "FAN", "name_en": "Fanling", "name_zh": "粉嶺", "exit": "A2", "lat": 22.491851121401762, "lng": 114.13914931997753}, {"station": "FAN", "name_en": "Fanling", "name_zh": "粉嶺", "exit": "A3", "lat": 22.49202266028575, "lng": 114.13898406815403}, {"station": "FAN", "name_en": "Fanling", "name_zh": "粉嶺", "exit": "B", "lat": 22.491822214524177, "lng": 114.13880100737698}, {"station": "FAN", "name_en": "Fanling", "name_zh": "粉嶺", "exit": "C", "lat": 22.492600107700813, "lng": 114.13836743983923}, {"station": "TWO", "name_en": "Tai Wo", "name_zh": "太和", "exit": "A", "lat": 22.450919846973203, "lng": 114.16113594081571}, {"station": "TWO", "name_en": "Tai Wo", "name_zh": "太和", "exit": "B", "lat": 22.451127576291487, "lng": 114.16143708588082}, {"station": "TAP", "name_en": "Tai Po Market", "name_zh": "大埔墟", "exit": "A1", "lat": 22.44424899018636, "lng": 114.16995615635476}, {"station": "TAP", "name_en": "Tai Po Market", "name_zh": "大埔墟", "exit": "A2", "lat": 22.444368081029772, "lng": 114.16975975968651}, {"station": "TAP", "name_en": "Tai Po Market", "name_zh": "大埔墟", "exit": "A3", "lat": 22.444237280002486, "lng": 114.17007722893177}, {"station": "TAP", "name_en": "Tai Po Market", "name_zh": "大埔墟", "exit": "B", "lat": 22.44420579933479, "lng": 114.17111010455044}, {"station": "UNI", "name_en": "University", "name_zh": "大學", "exit": "A", "lat": 22.41372515766808, "lng": 114.2099296815589}, {"station": "UNI", "name_en": "University", "name_zh": "大學", "exit": "B", "lat": 22.413362638558752, "lng": 114.21030799041819}, {"station": "UNI", "name_en": "University", "name_zh": "大學", "exit": "C", "lat": 22.414086450339862, "lng": 114.21004509016312}, {"station": "UNI", "name_en": "University", "name_zh": "大學", "exit": "D", "lat": 22.415098071784247, "lng": 114.21073004051367}, {"station": "FOT", "name_en": "Fo Tan", "name_zh": "火炭", "exit": "A", "lat": 22.394734625654817, "lng": 114.19799465181902}, {"station": "FOT", "name_en": "Fo Tan", "name_zh": "火炭", "exit": "B", "lat": 22.39485134102504, "lng": 114.19775450652598}, {"station": "FOT", "name_en": "Fo Tan", "name_zh": "火炭", "exit": "C", "lat": 22.395719351825623, "lng": 114.19864578019828}, {"station": "FOT", "name_en": "Fo Tan", "name_zh": "火炭", "exit": "D", "lat": 22.395849037116903, "lng": 114.19840712002964}, {"station": "SHT", "name_en": "Sha Tin", "name_zh": "沙田", "exit": "A1", "lat": 22.382846548764686, "lng": 114.18777614213651}, {"station": "SHT", "name_en": "Sha Tin", "name_zh": "沙田", "exit": "A2", "lat": 22.382685890330787, "lng": 114.18773055451781}, {"station": "SHT", "name_en": "Sha Tin", "name_zh": "沙田", "exit": "A3", "lat": 22.38241498756805, "lng": 114.18753632674152}, {"station": "SHT", "name_en": "Sha Tin", "name_zh": "沙田", "exit": "A4", "lat": 22.3822071174984, "lng": 114.18730644640937}, {"station": "SHT", "name_en": "Sha Tin", "name_zh": "沙田", "exit": "B", "lat": 22.382939798946605, "lng": 114.18762962994013}, {"station": "TAW", "name_en": "Tai Wai", "name_zh": "大圍", "exit": "A", "lat": 22.373516799214332, "lng": 114.17890307226142}, {"station": "TAW", "name_en": "Tai Wai", "name_zh": "大圍", "exit": "B", "lat": 22.373003748762002, "lng": 114.17936941571267}, {"station": "TAW", "name_en": "Tai Wai", "name_zh": "大圍", "exit": "C", "lat": 22.372720458302354, "lng": 114.17802388452502}, {"station": "TAW", "name_en": "Tai Wai", "name_zh": "大圍", "exit": "D", "lat": 22.37313388496379, "lng": 114.17825763970441}, {"station": "TAW", "name_en": "Tai Wai", "name_zh": "大圍", "exit": "E", "lat": 22.37258986885921, "lng": 114.17751680836888}, {"station": "TAW", "name_en": "Tai Wai", "name_zh": "大圍", "exit": "F", "lat": 22.372153658019936, "lng": 114.17783445468642}, {"station": "TAW", "name_en": "Tai Wai", "name_zh": "大圍", "exit": "G", "lat": 22.37236887423809, "lng": 114.17720946280569}, {"station": "TAW", "name_en": "Tai Wai", "name_zh": "大圍", "exit": "H", "lat": 22.373370015773325, "lng": 114.17952104912501}, {"station": "KOT", "name_en": "Kowloon Tong", "name_zh": "九龍塘", "exit": "A1", "lat": 22.336912587187552, "lng": 114.1778412472087}, {"station": "KOT", "name_en": "Kowloon Tong", "name_zh": "九龍塘", "exit": "A2", "lat": 22.33689108420888, "lng": 114.17824114060207}, {"station": "KOT", "name_en": "Kowloon Tong", "name_zh": "九龍塘", "exit": "B", "lat": 22.336977679741047, "lng": 114.17653630225792}, {"station": "KOT", "name_en": "Kowloon Tong", "name_zh": "九龍塘", "exit": "C1", "lat": 22.33701011840656, "lng": 114.17540343985395}, {"station": "KOT", "name_en": "Kowloon Tong", "name_zh": "九龍塘", "exit": "C2", "lat": 22.33671958040433, "lng": 114.17557554739014}, {"station": "KOT", "name_en": "Kowloon Tong", "name_zh": "九龍塘", "exit": "D", "lat": 22.33647192144204, "lng": 114.1765201911998}, {"station": "KOT", "name_en": "Kowloon Tong", "name_zh": "九龍塘", "exit": "E", "lat": 22.336672254593683, "lng": 114.17751255411507}, {"station": "KOT", "name_en": "Kowloon Tong", "name_zh": "九龍塘", "exit": "F", "lat": 22.337086126082166, "lng": 114.17620819096392}, {"station": "KOT", "name_en": "Kowloon Tong", "name_zh": "九龍塘", "exit": "G1", "lat": 22.337071775676105, "lng": 114.17602207504522}, {"station": "KOT", "name_en": "Kowloon Tong", "name_zh": "九龍塘", "exit": "G2", "lat": 22.33715305049565, "lng": 114.17595412419645}, {"station": "KOT", "name_en": "Kowloon Tong", "name_zh": "九龍塘", "exit": "H", "lat": 22.33726883686942, "lng": 114.1754335066468}, {"station": "MKK", "name_en": "Mong Kok East", "name_zh": "旺角東", "exit": "A", "lat": 22.321693814338023, "lng": 114.17265219620461}, {"station": "MKK", "name_en": "Mong Kok East", "name_zh": "旺角東", "exit": "B", "lat": 22.321695845072604, "lng": 114.1724949424144}, {"station": "MKK", "name_en": "Mong Kok East", "name_zh": "旺角東", "exit": "C", "lat": 22.32259662681817, "lng": 114.17254371236196}, {"station": "MKK", "name_en": "Mong Kok East", "name_zh": "旺角東", "exit": "D", "lat": 22.322654136525287, "lng": 114.17265501153092}, {"station": "HUH", "name_en": "Hung Hom", "name_zh": "紅磡", "exit": "A1", "lat": 22.303461024761752, "lng": 114.1811639071771}, {"station": "HUH", "name_en": "Hung Hom", "name_zh": "紅磡", "exit": "A2", "lat": 22.30382960137892, "lng": 114.18144692292758}, {"station": "HUH", "name_en": "Hung Hom", "name_zh": "紅磡", "exit": "A3", "lat": 22.304105135889927, "lng": 114.18147902981671}, {"station": "HUH", "name_en": "Hung Hom", "name_zh": "紅磡", "exit": "B1", "lat": 22.304093102605766, "lng": 114.18314372850821}, {"station": "HUH", "name_en": "Hung Hom", "name_zh": "紅磡", "exit": "B2", "lat": 22.303542801121285, "lng": 114.18221814509351}, {"station": "HUH", "name_en": "Hung Hom", "name_zh": "紅磡", "exit": "C1", "lat": 22.303374399497514, "lng": 114.18240878568277}, {"station": "HUH", "name_en": "Hung Hom", "name_zh": "紅磡", "exit": "C2", "lat": 22.30283918628018, "lng": 114.18234713869245}, {"station": "HUH", "name_en": "Hung Hom", "name_zh": "紅磡", "exit": "C3", "lat": 22.302299193292697, "lng": 114.1822931979756}, {"station": "HUH", "name_en": "Hung Hom", "name_zh": "紅磡", "exit": "D1", "lat": 22.30206010980559, "lng": 114.1810105285734}, {"station": "HUH", "name_en": "Hung Hom", "name_zh": "紅磡", "exit": "D2", "lat": 22.30187160993282, "lng": 114.18207610532968}, {"station": "HUH", "name_en": "Hung Hom", "name_zh": "紅磡", "exit": "D3", "lat": 22.301365920911305, "lng": 114.18122207086104}, {"station": "HUH", "name_en": "Hung Hom", "name_zh": "紅磡", "exit": "D4", "lat": 22.3007699037024, "lng": 114.18109589136556}, {"station": "HUH", "name_en": "Hung Hom", "name_zh": "紅磡", "exit": "D5", "lat": 22.300742815866272, "lng": 114.18094061567129}, {"station": "HUH", "name_en": "Hung Hom", "name_zh": "紅磡", "exit": "D6", "lat": 22.30215944677653, "lng": 114.18131334494194}, {"station": "EXC", "name_en": "Exhibition Centre", "name_zh": "會展", "exit": "A1", "lat": 22.281360750620884, "lng": 114.17624351495365}, {"station": "EXC", "name_en": "Exhibition Centre", "name_zh": "會展", "exit": "A2", "lat": 22.281561284970312, "lng": 114.17625324658638}, {"station": "EXC", "name_en": "Exhibition Centre", "name_zh": "會展", "exit": "A3", "lat": 22.281333927773975, "lng": 114.17585603160725}, {"station": "EXC", "name_en": "Exhibition Centre", "name_zh": "會展", "exit": "B1", "lat": 22.281444210134197, "lng": 114.17487741917618}, {"station": "EXC", "name_en": "Exhibition Centre", "name_zh": "會展", "exit": "B2", "lat": 22.281584429505685, "lng": 114.17493481258748}, {"station": "EXC", "name_en": "Exhibition Centre", "name_zh": "會展", "exit": "B3", "lat": 22.281233747360876, "lng": 114.17458422619607}, {"station": "ADM", "name_en": "Admiralty", "name_zh": "金鐘", "exit": "A", "lat": 22.279520469412848, "lng": 114.16507523932111}, {"station": "ADM", "name_en": "Admiralty", "name_zh": "金鐘", "exit": "B", "lat": 22.279385451867164, "lng": 114.1640251722921}, {"station": "ADM", "name_en": "Admiralty", "name_zh": "金鐘", "exit": "C1", "lat": 22.27853508511515, "lng": 114.16477371332783}, {"station": "ADM", "name_en": "Admiralty", "name_zh": "金鐘", "exit": "C2", "lat": 22.278996676060686, "lng": 114.164852109992}, {"station": "ADM", "name_en": "Admiralty", "name_zh": "金鐘", "exit": "D", "lat": 22.278721285242145, "lng": 114.16561694691859}, {"station": "ADM", "name_en": "Admiralty", "name_zh": "金鐘", "exit": "E", "lat": 22.278941890822725, "lng": 114.16606506966559}, {"station": "ADM", "name_en": "Admiralty", "name_zh": "金鐘", "exit": "F", "lat": 22.27859038285708, "lng": 114.16607474149335}, {"station": "CHW", "name_en": "Chai Wan", "name_zh": "柴灣", "exit": "A", "lat": 22.263838223152085, "lng": 114.23681920728957}, {"station": "CHW", "name_en": "Chai Wan", "name_zh": "柴灣", "exit": "B", "lat": 22.264123808121642, "lng": 114.23679286087336}, {"station": "CHW", "name_en": "Chai Wan", "name_zh": "柴灣", "exit": "C", "lat": 22.264943307836088, "lng": 114.23722040784}, {"station": "CHW", "name_en": "Chai Wan", "name_zh": "柴灣", "exit": "D", "lat": 22.265404596514177, "lng": 114.2374547595779}, {"station": "CHW", "name_en": "Chai Wan", "name_zh": "柴灣", "exit": "E", "lat": 22.263899097145085, "lng": 114.23667379757408}, {"station": "HFC", "name_en": "Heng Fa Chuen", "name_zh": "杏花邨", "exit": "A1", "lat": 22.27705676614076, "lng": 114.23980047431155}, {"station": "HFC", "name_en": "Heng Fa Chuen", "name_zh": "杏花邨", "exit": "A2", "lat": 22.27656051840388, "lng": 114.2402083120736}, {"station": "SKW", "name_en": "Shau Kei Wan", "name_zh": "筲箕灣", "exit": "A1", "lat": 22.27895512442445, "lng": 114.22880111937724}, {"station": "SKW", "name_en": "Shau Kei Wan", "name_zh": "筲箕灣", "exit": "A2", "lat": 22.27871131148991, "lng": 114.22867175413373}, {"station": "SKW", "name_en": "Shau Kei Wan", "name_zh": "筲箕灣", "exit": "A3", "lat": 22.278672903953616, "lng": 114.22824648957811}, {"station": "SKW", "name_en": "Shau Kei Wan", "name_zh": "筲箕灣", "exit": "B1", "lat": 22.279194333426183, "lng": 114.2296751869329}, {"station": "SKW", "name_en": "Shau Kei Wan", "name_zh": "筲箕灣", "exit": "B2", "lat": 22.279808788473773, "lng": 114.22986629435792}, {"station": "SKW", "name_en": "Shau Kei Wan", "name_zh": "筲箕灣", "exit": "B3", "lat": 22.279536017716715, "lng": 114.2282413519223}, {"station": "SKW", "name_en": "Shau Kei Wan", "name_zh": "筲箕灣", "exit": "C", "lat": 22.278833845913766, "lng": 114.22974265623952}, {"station": "SKW", "name_en": "Shau Kei Wan", "name_zh": "筲箕灣", "exit": "D1", "lat": 22.28041845428229, "lng": 114.22981754438756}, {"station": "SKW", "name_en": "Shau Kei Wan", "name_zh": "筲箕灣", "exit": "D2", "lat": 22.279746613668696, "lng": 114.22893320721336}, {"station": "SWH", "name_en": "Sai Wan Ho", "name_zh": "西灣河", "exit": "A", "lat": 22.282257298157752, "lng": 114.22244568061873}, {"station": "SWH", "name_en": "Sai Wan Ho", "name_zh": "西灣河", "exit": "B", "lat": 22.281986099363568, "lng": 114.22219237802373}, {"station": "TAK", "name_en": "Tai Koo", "name_zh": "太古", "exit": "A1", "lat": 22.285074153471992, "lng": 114.2151962810653}, {"station": "TAK", "name_en": "Tai Koo", "name_zh": "太古", "exit": "A2", "lat": 22.284839288298524, "lng": 114.21548611142786}, {"station": "TAK", "name_en": "Tai Koo", "name_zh": "太古", "exit": "B", "lat": 22.284460674226093, "lng": 114.2150250885217}, {"station": "TAK", "name_en": "Tai Koo", "name_zh": "太古", "exit": "C", "lat": 22.284423113715473, "lng": 114.21682587121977}, {"station": "TAK", "name_en": "Tai Koo", "name_zh": "太古", "exit": "D1", "lat": 22.28593142762726, "lng": 114.21665048161397}, {"station": "TAK", "name_en": "Tai Koo", "name_zh": "太古", "exit": "D2", "lat": 22.285873539461484, "lng": 114.21680487942083}, {"station": "TAK", "name_en": "Tai Koo", "name_zh": "太古", "exit": "E1", "lat": 22.28551221098149, "lng": 114.21722203261547}, {"station": "TAK", "name_en": "Tai Koo", "name_zh": "太古", "exit": "E2", "lat": 22.285322296700883, "lng": 114.21693111224761}, {"station": "TAK", "name_en": "Tai Koo", "name_zh": "太古", "exit": "E3", "lat": 22.285354124973097, "lng": 114.216876994559}, {"station": "QUB", "name_en": "Quarry Bay", "name_zh": "鰂魚涌", "exit": "A", "lat": 22.287778265473488, "lng": 114.20992769985853}, {"station": "QUB", "name_en": "Quarry Bay", "name_zh": "鰂魚涌", "exit": "B", "lat": 22.2884696314402, "lng": 114.21037183231334}, {"station": "QUB", "name_en": "Quarry Bay", "name_zh": "鰂魚涌", "exit": "C", "lat": 22.29057141125567, "lng": 114.20791858644905}, {"station": "NOP", "name_en": "North Point", "name_zh": "北角", "exit": "A1", "lat": 22.292218525842635, "lng": 114.2002818318525}, {"station": "NOP", "name_en": "North Point", "name_zh": "北角", "exit": "A2", "lat": 22.291907332342895, "lng": 114.20026927138059}, {"station": "NOP", "name_en": "North Point", "name_zh": "北角", "exit": "A3", "lat": 22.29204351364574, "lng": 114.20027282637668}, {"station": "NOP", "name_en": "North Point", "name_zh": "北角", "exit": "A4", "lat": 22.29162318639353, "lng": 114.20031274645937}, {"station": "NOP", "name_en": "North Point", "name_zh": "北角", "exit": "B1", "lat": 22.291046776702615, "lng": 114.20045813285681}, {"station": "NOP", "name_en": "North Point", "name_zh": "北角", "exit": "B2", "lat": 22.291042915476268, "lng": 114.20067855877527}, {"station": "NOP", "name_en": "North Point", "name_zh": "北角", "exit": "B3", "lat": 22.2911218366623, "lng": 114.20087182325008}, {"station": "NOP", "name_en": "North Point", "name_zh": "北角", "exit": "B4", "lat": 22.290710350049178, "lng": 114.20070309826377}, {"station": "FOH", "name_en": "Fortress Hill", "name_zh": "炮台山", "exit": "A", "lat": 22.288088402134207, "lng": 114.19365344370954}, {"station": "FOH", "name_en": "Fortress Hill", "name_zh": "炮台山", "exit": "B", "lat": 22.288406699886973, "lng": 114.19395854704409}, {"station": "TIH", "name_en": "Tin Hau", "name_zh": "天后", "exit": "A1", "lat": 22.282919516792482, "lng": 114.19209203668399}, {"station": "TIH", "name_en": "Tin Hau", "name_zh": "天后", "exit": "A2", "lat": 22.28291490449116, "lng": 114.19177263592144}, {"station": "TIH", "name_en": "Tin Hau", "name_zh": "天后", "exit": "B", "lat": 22.282388573979688, "lng": 114.19174411220978}, {"station": "CAB", "name_en": "Causeway Bay", "name_zh": "銅鑼灣", "exit": "A", "lat": 22.278545486507802, "lng": 114.18250217299318}, {"station": "CAB", "name_en": "Causeway Bay", "name_zh": "銅鑼灣", "exit": "B", "lat": 22.280166473527228, "lng": 114.18285337993589}, {"station": "CAB", "name_en": "Causeway Bay", "name_zh": "銅鑼灣", "exit": "C", "lat": 22.28048610010824, "lng": 114.18278538983586}, {"station": "CAB", "name_en": "Causeway Bay", "name_zh": "銅鑼灣", "exit": "D1", "lat": 22.280578067854954, "lng": 114.18425923895606}, {"station": "CAB", "name_en": "Causeway Bay", "name_zh": "銅鑼灣", "exit": "D2", "lat": 22.28029043541685, "lng": 114.18422048384869}, {"station": "CAB", "name_en": "Causeway Bay", "name_zh": "銅鑼灣", "exit": "D3", "lat": 22.280458732032, "lng": 114.18436722044314}, {"station": "CAB", "name_en": "Causeway Bay", "name_zh": "銅鑼灣", "exit": "D4", "lat": 22.280467776791507, "lng": 114.18405671597597}, {"station": "CAB", "name_en": "Causeway Bay", "name_zh": "銅鑼灣", "exit": "E", "lat": 22.280386498452593, "lng": 114.18505966763564}, {"station": "CAB", "name_en": "Causeway Bay", "name_zh": "銅鑼灣", "exit": "F1", "lat": 22.279852569761193, "lng": 114.18434046522998}, {"station": "CAB", "name_en": "Causeway Bay", "name_zh": "銅鑼灣", "exit": "F2", "lat": 22.279889813362978, "lng": 114.1841149057054}, {"station": "WAC", "name_en": "Wan Chai", "name_zh": "灣仔", "exit": "A1", "lat": 22.278033056807235, "lng": 114.17322112587885}, {"station": "WAC", "name_en": "Wan Chai", "name_zh": "灣仔", "exit": "A2", "lat": 22.277825921571804, "lng": 114.17324660182013}, {"station": "WAC", "name_en": "Wan Chai", "name_zh": "灣仔", "exit": "A3", "lat": 22.276833725563513, "lng": 114.17334981296851}, {"station": "WAC", "name_en": "Wan Chai", "name_zh": "灣仔", "exit": "A4", "lat": 22.277425597642498, "lng": 114.17328137228812}, {"station": "WAC", "name_en": "Wan Chai", "name_zh": "灣仔", "exit": "A5", "lat": 22.27710336343595, "lng": 114.17330307244717}, {"station": "WAC", "name_en": "Wan Chai", "name_zh": "灣仔", "exit": "B1", "lat": 22.277384631874668, "lng": 114.1726692475739}, {"station": "WAC", "name_en": "Wan Chai", "name_zh": "灣仔", "exit": "B2", "lat": 22.277272211729553, "lng": 114.17265351641606}, {"station": "WAC", "name_en": "Wan Chai", "name_zh": "灣仔", "exit": "C", "lat": 22.27804859303209, "lng": 114.17290936087461}, {"station": "WAC", "name_en": "Wan Chai", "name_zh": "灣仔", "exit": "D", "lat": 22.276420301507933, "lng": 114.17247652015122}, {"station": "CEN", "name_en": "Central", "name_zh": "中環", "exit": "A", "lat": 22.282767432049138, "lng": 114.15788168916158}, {"station": "CEN", "name_en": "Central", "name_zh": "中環", "exit": "B", "lat": 22.282495918176476, "lng": 114.15761366878542}, {"station": "CEN", "name_en": "Central", "name_zh": "中環", "exit": "C", "lat": 22.282204661128468, "lng": 114.1574244959846}, {"station": "CEN", "name_en": "Central", "name_zh": "中環", "exit": "D1", "lat": 22.281811800360057, "lng": 114.15721895514312}, {"station": "CEN", "name_en": "Central", "name_zh": "中環", "exit": "D2", "lat": 22.281956276496434, "lng": 114.1571031020398}, {"station": "CEN", "name_en": "Central", "name_zh": "中環", "exit": "E", "lat": 22.281976659023734, "lng": 114.15816276095146}, {"station": "CEN", "name_en": "Central", "name_zh": "中環", "exit": "F", "lat": 22.28186417282135, "lng": 114.15859856244018}, {"station": "CEN", "name_en": "Central", "name_zh": "中環", "exit": "G", "lat": 22.281770648290397, "lng": 114.15764833496803}, {"station": "CEN", "name_en": "Central", "name_zh": "中環", "exit": "H", "lat": 22.281636443879375, "lng": 114.1587490830191}, {"station": "CEN", "name_en": "Central", "name_zh": "中環", "exit": "J1", "lat": 22.2812336174849, "lng": 114.16057205344838}, {"station": "CEN", "name_en": "Central", "name_zh": "中環", "exit": "J2", "lat": 22.281036698051153, "lng": 114.16090753720884}, {"station": "CEN", "name_en": "Central", "name_zh": "中環", "exit": "J3", "lat": 22.281278322334835, "lng": 114.16087839985032}, {"station": "CEN", "name_en": "Central", "name_zh": "中環", "exit": "K", "lat": 22.281179926147594, "lng": 114.1595696745708}, {"station": "CEN", "name_en": "Central", "name_zh": "中環", "exit": "L", "lat": 22.281344349406005, "lng": 114.16138781770867}, {"station": "SHW", "name_en": "Sheung Wan", "name_zh": "上環", "exit": "A1", "lat": 22.286353534783604, "lng": 114.15226459041767}, {"station": "SHW", "name_en": "Sheung Wan", "name_zh": "上環", "exit": "A2", "lat": 22.286135662651542, "lng": 114.15221065298061}, {"station": "SHW", "name_en": "Sheung Wan", "name_zh": "上環", "exit": "B", "lat": 22.286688236229892, "lng": 114.15203536353897}, {"station": "SHW", "name_en": "Sheung Wan", "name_zh": "上環", "exit": "C", "lat": 22.287040588775852, "lng": 114.15213513903316}, {"station": "SHW", "name_en": "Sheung Wan", "name_zh": "上環", "exit": "D", "lat": 22.287618369316093, "lng": 114.15215277604901}, {"station": "SHW", "name_en": "Sheung Wan", "name_zh": "上環", "exit": "E1", "lat": 22.286056246191848, "lng": 114.15333811026403}, {"station": "SHW", "name_en": "Sheung Wan", "name_zh": "上環", "exit": "E2", "lat": 22.28589030246863, "lng": 114.15329750510439}, {"station": "SHW", "name_en": "Sheung Wan", "name_zh": "上環", "exit": "E3", "lat": 22.28618949193383, "lng": 114.15364375373174}, {"station": "SHW", "name_en": "Sheung Wan", "name_zh": "上環", "exit": "E4", "lat": 22.286621837597135, "lng": 114.15367340119556}, {"station": "SHW", "name_en": "Sheung Wan", "name_zh": "上環", "exit": "E5", "lat": 22.286581192747523, "lng": 114.1536242817387}, {"station": "SYP", "name_en": "Sai Ying Pun", "name_zh": "西營盤", "exit": "A1", "lat": 22.28712815930881, "lng": 114.14444336806531}, {"station": "SYP", "name_en": "Sai Ying Pun", "name_zh": "西營盤", "exit": "A2", "lat": 22.28773353773921, "lng": 114.14423010197436}, {"station": "SYP", "name_en": "Sai Ying Pun", "name_zh": "西營盤", "exit": "B1", "lat": 22.286481918561478, "lng": 114.14174486329792}, {"station": "SYP", "name_en": "Sai Ying Pun", "name_zh": "西營盤", "exit": "B2", "lat": 22.28626288738763, "lng": 114.14178071307528}, {"station": "SYP", "name_en": "Sai Ying Pun", "name_zh": "西營盤", "exit": "B3", "lat": 22.287581930048287, "lng": 114.1415052370835}, {"station": "SYP", "name_en": "Sai Ying Pun", "name_zh": "西營盤", "exit": "C", "lat": 22.284565144616394, "lng": 114.14335337515631}, {"station": "HKU", "name_en": "HKU", "name_zh": "香港大學", "exit": "A1", "lat": 22.283474567573663, "lng": 114.1366931428174}, {"station": "HKU", "name_en": "HKU", "name_zh": "香港大學", "exit": "A2", "lat": 22.283474567573663, "lng": 114.1366931428174}, {"station": "HKU", "name_en": "HKU", "name_zh": "香港大學", "exit": "B1", "lat": 22.285669105505853, "lng": 114.13683315190141}, {"station": "HKU", "name_en": "HKU", "name_zh": "香港大學", "exit": "B2", "lat": 22.285615197565583, "lng": 114.1351429567021}, {"station": "HKU", "name_en": "HKU", "name_zh": "香港大學", "exit": "C1", "lat": 22.28449246360573, "lng": 114.13456112154365}, {"station": "HKU", "name_en": "HKU", "name_zh": "香港大學", "exit": "C2", "lat": 22.285862844259903, "lng": 114.13262795902145}, {"station": "KET", "name_en": "Kennedy Town", "name_zh": "堅尼地城", "exit": "A", "lat": 22.28113142089153, "lng": 114.12855633953235}, {"station": "KET", "name_en": "Kennedy Town", "name_zh": "堅尼地城", "exit": "B", "lat": 22.28207103973282, "lng": 114.1292791492671}, {"station": "KET", "name_en": "Kennedy Town", "name_zh": "堅尼地城", "exit": "C", "lat": 22.281254105672673, "lng": 114.12804330237977}, {"station": "TIK", "name_en": "Tiu Keng Leng", "name_zh": "調景嶺", "exit": "A1", "lat": 22.304472822267464, "lng": 114.25271842535527}, {"station": "TIK", "name_en": "Tiu Keng Leng", "name_zh": "調景嶺", "exit": "A2", "lat": 22.304328264449673, "lng": 114.25286392107733}, {"station": "TIK", "name_en": "Tiu Keng Leng", "name_zh": "調景嶺", "exit": "B", "lat": 22.304093722560932, "lng": 114.25232031943153}, {"station": "YAT", "name_en": "Yau Tong", "name_zh": "油塘", "exit": "A1", "lat": 22.297252428195943, "lng": 114.23771207241312}, {"station": "YAT", "name_en": "Yau Tong", "name_zh": "油塘", "exit": "A2", "lat": 22.297157916729816, "lng": 114.23755958460086}, {"station": "YAT", "name_en": "Yau Tong", "name_zh": "油塘", "exit": "B1", "lat": 22.298562993703253, "lng": 114.2367427039254}, {"station": "YAT", "name_en": "Yau Tong", "name_zh": "油塘", "exit": "B2", "lat": 22.2984698978027, "lng": 114.23659951102617}, {"station": "LAT", "name_en": "Lam Tin", "name_zh": "藍田", "exit": "A", "lat": 22.308001010299584, "lng": 114.23429918039355}, {"station": "LAT", "name_en": "Lam Tin", "name_zh": "藍田", "exit": "B", "lat": 22.306899693993316, "lng": 114.23352498896612}, {"station": "LAT", "name_en": "Lam Tin", "name_zh": "藍田", "exit": "C", "lat": 22.30602369140025, "lng": 114.23362168577131}, {"station": "LAT", "name_en": "Lam Tin", "name_zh": "藍田", "exit": "D1", "lat": 22.30707903520549, "lng": 114.23181593932063}, {"station": "LAT", "name_en": "Lam Tin", "name_zh": "藍田", "exit": "D2", "lat": 22.307228984544544, "lng": 114.2320198327206}, {"station": "KWT", "name_en": "Kwun Tong", "name_zh": "觀塘", "exit": "A", "lat": 22.312592382770745, "lng": 114.22571400429031}, {"station": "KWT", "name_en": "Kwun Tong", "name_zh": "觀塘", "exit": "A1", "lat": 22.312761518383788, "lng": 114.22579880196234}, {"station": "KWT", "name_en": "Kwun Tong", "name_zh": "觀塘", "exit": "A2", "lat": 22.312403076932327, "lng": 114.22561530156142}, {"station": "KWT", "name_en": "Kwun Tong", "name_zh": "觀塘", "exit": "B", "lat": 22.312086798170142, "lng": 114.22633074619321}, {"station": "KWT", "name_en": "Kwun Tong", "name_zh": "觀塘", "exit": "B1", "lat": 22.311572082610855, "lng": 114.22620704379219}, {"station": "KWT", "name_en": "Kwun Tong", "name_zh": "觀塘", "exit": "B2", "lat": 22.311508886128877, "lng": 114.22614878904352}, {"station": "KWT", "name_en": "Kwun Tong", "name_zh": "觀塘", "exit": "B3", "lat": 22.31177983655492, "lng": 114.22604212437287}, {"station": "KWT", "name_en": "Kwun Tong", "name_zh": "觀塘", "exit": "C", "lat": 22.3123655210775, "lng": 114.22649991391826}, {"station": "KWT", "name_en": "Kwun Tong", "name_zh": "觀塘", "exit": "C1", "lat": 22.31243881489216, "lng": 114.22687702706286}, {"station": "KWT", "name_en": "Kwun Tong", "name_zh": "觀塘", "exit": "C2", "lat": 22.312276264110043, "lng": 114.22687696912492}, {"station": "KWT", "name_en": "Kwun Tong", "name_zh": "觀塘", "exit": "C3", "lat": 22.31273707712773, "lng": 114.22605216537566}, {"station": "KWT", "name_en": "Kwun Tong", "name_zh": "觀塘", "exit": "D", "lat": 22.31168430877351, "lng": 114.22725430918923}, {"station": "KWT", "name_en": "Kwun Tong", "name_zh": "觀塘", "exit": "D1", "lat": 22.311779382218774, "lng": 114.22751735103756}, {"station": "KWT", "name_en": "Kwun Tong", "name_zh": "觀塘", "exit": "D2", "lat": 22.311887803916445, "lng": 114.2273426921287}, {"station": "KWT", "name_en": "Kwun Tong", "name_zh": "觀塘", "exit": "D3", "lat": 22.311653110763782, "lng": 114.22701262305183}, {"station": "KWT", "name_en": "Kwun Tong", "name_zh": "觀塘", "exit": "D4", "lat": 22.3114543532563, "lng": 114.2272843036992}, {"station": "NTK", "name_en": "Ngau Tau Kok", "name_zh": "牛頭角", "exit": "A", "lat": 22.315521607986543, "lng": 114.21937682400859}, {"station": "NTK", "name_en": "Ngau Tau Kok", "name_zh": "牛頭角", "exit": "B", "lat": 22.31564227065272, "lng": 114.21905210799662}, {"station": "NTK", "name_en": "Ngau Tau Kok", "name_zh": "牛頭角", "exit": "B1", "lat": 22.315759662993276, "lng": 114.21947316326363}, {"station": "NTK", "name_en": "Ngau Tau Kok", "name_zh": "牛頭角", "exit": "B2", "lat": 22.315946640540446, "lng": 114.21919395150593}, {"station": "NTK", "name_en": "Ngau Tau Kok", "name_zh": "牛頭角", "exit": "B3", "lat": 22.31604020599808, "lng": 114.21875792863605}, {"station": "NTK", "name_en": "Ngau Tau Kok", "name_zh": "牛頭角", "exit": "B4", "lat": 22.31586031812281, "lng": 114.21858192860323}, {"station": "NTK", "name_en": "Ngau Tau Kok", "name_zh": "牛頭角", "exit": "B5", "lat": 22.31506465992693, "lng": 114.21874538873504}, {"station": "NTK", "name_en": "Ngau Tau Kok", "name_zh": "牛頭角", "exit": "B6", "lat": 22.314971277840446, "lng": 114.21847344346476}, {"station": "KOB", "name_en": "Kowloon Bay", "name_zh": "九龍灣", "exit": "A", "lat": 22.32262439861189, "lng": 114.21416316188152}, {"station": "KOB", "name_en": "Kowloon Bay", "name_zh": "九龍灣", "exit": "B", "lat": 22.32445686059981, "lng": 114.21397976823351}, {"station": "KOB", "name_en": "Kowloon Bay", "name_zh": "九龍灣", "exit": "C", "lat": 22.323650635826986, "lng": 114.21404066038097}, {"station": "CHH", "name_en": "Choi Hung", "name_zh": "彩虹", "exit": "A1", "lat": 22.334065878508973, "lng": 114.20964155329688}, {"station": "CHH", "name_en": "Choi Hung", "name_zh": "彩虹", "exit": "A2", "lat": 22.334008844080007, "lng": 114.20935083943967}, {"station": "CHH", "name_en": "Choi Hung", "name_zh": "彩虹", "exit": "A3", "lat": 22.33405340719692, "lng": 114.20969367259956}, {"station": "CHH", "name_en": "Choi Hung", "name_zh": "彩虹", "exit": "B", "lat": 22.334358140322244, "lng": 114.20934713653813}, {"station": "CHH", "name_en": "Choi Hung", "name_zh": "彩虹", "exit": "C1", "lat": 22.334901052844078, "lng": 114.2081988071265}, {"station": "CHH", "name_en": "Choi Hung", "name_zh": "彩虹", "exit": "C2", "lat": 22.335654444858108, "lng": 114.20787309425877}, {"station": "CHH", "name_en": "Choi Hung", "name_zh": "彩虹", "exit": "C3", "lat": 22.334848306209977, "lng": 114.2078111984991}, {"station": "CHH", "name_en": "Choi Hung", "name_zh": "彩虹", "exit": "C4", "lat": 22.335463888956053, "lng": 114.20750273671366}, {"station": "DIH", "name_en": "Diamond Hill", "name_zh": "鑽石山", "exit": "A1", "lat": 22.341012281379232, "lng": 114.20087368468104}, {"station": "DIH", "name_en": "Diamond Hill", "name_zh": "鑽石山", "exit": "A2", "lat": 22.340041266165176, "lng": 114.20034105777842}, {"station": "DIH", "name_en": "Diamond Hill", "name_zh": "鑽石山", "exit": "B", "lat": 22.339355851383555, "lng": 114.20204566014141}, {"station": "DIH", "name_en": "Diamond Hill", "name_zh": "鑽石山", "exit": "C1", "lat": 22.34015808355235, "lng": 114.20226803600913}, {"station": "DIH", "name_en": "Diamond Hill", "name_zh": "鑽石山", "exit": "C2", "lat": 22.340258719654006, "lng": 114.20244369046186}, {"station": "WTS", "name_en": "Wong Tai Sin", "name_zh": "黃大仙", "exit": "A", "lat": 22.341887635255976, "lng": 114.19448267206594}, {"station": "WTS", "name_en": "Wong Tai Sin", "name_zh": "黃大仙", "exit": "B1", "lat": 22.341806634186906, "lng": 114.19288725217854}, {"station": "WTS", "name_en": "Wong Tai Sin", "name_zh": "黃大仙", "exit": "B2", "lat": 22.34180906818005, "lng": 114.19342605054746}, {"station": "WTS", "name_en": "Wong Tai Sin", "name_zh": "黃大仙", "exit": "B3", "lat": 22.342041659012214, "lng": 114.19309713532923}, {"station": "WTS", "name_en": "Wong Tai Sin", "name_zh": "黃大仙", "exit": "C1", "lat": 22.341557458164832, "lng": 114.19298478724146}, {"station": "WTS", "name_en": "Wong Tai Sin", "name_zh": "黃大仙", "exit": "C2", "lat": 22.341410633606632, "lng": 114.19318330580973}, {"station": "WTS", "name_en": "Wong Tai Sin", "name_zh": "黃大仙", "exit": "D1", "lat": 22.341576623718655, "lng": 114.19503671864697}, {"station": "WTS", "name_en": "Wong Tai Sin", "name_zh": "黃大仙", "exit": "D2", "lat": 22.341262817279407, "lng": 114.1946706604237}, {"station": "WTS", "name_en": "Wong Tai Sin", "name_zh": "黃大仙", "exit": "D3", "lat": 22.341289276925906, "lng": 114.19439637526057}, {"station": "WTS", "name_en": "Wong Tai Sin", "name_zh": "黃大仙", "exit": "E", "lat": 22.34188939855932, "lng": 114.19464116151123}, {"station": "LOF", "name_en": "Lok Fu", "name_zh": "樂富", "exit": "A", "lat": 22.338219191755687, "lng": 114.18767599660364}, {"station": "LOF", "name_en": "Lok Fu", "name_zh": "樂富", "exit": "B", "lat": 22.337785998122794, "lng": 114.18776589098296}, {"station": "SKM", "name_en": "Shek Kip Mei", "name_zh": "石硤尾", "exit": "A", "lat": 22.331676511666092, "lng": 114.16855570868681}, {"station": "SKM", "name_en": "Shek Kip Mei", "name_zh": "石硤尾", "exit": "B1", "lat": 22.331474429951992, "lng": 114.16914097731045}, {"station": "SKM", "name_en": "Shek Kip Mei", "name_zh": "石硤尾", "exit": "B2", "lat": 22.331697151820382, "lng": 114.1689887565425}, {"station": "SKM", "name_en": "Shek Kip Mei", "name_zh": "石硤尾", "exit": "C", "lat": 22.332745784125127, "lng": 114.16883137919285}, {"station": "PRE", "name_en": "Prince Edward", "name_zh": "太子", "exit": "A", "lat": 22.325074519223715, "lng": 114.16837133465953}, {"station": "PRE", "name_en": "Prince Edward", "name_zh": "太子", "exit": "B1", "lat": 22.32415782775438, "lng": 114.16859335790481}, {"station": "PRE", "name_en": "Prince Edward", "name_zh": "太子", "exit": "B2", "lat": 22.323879235204505, "lng": 114.16901937253512}, {"station": "PRE", "name_en": "Prince Edward", "name_zh": "太子", "exit": "C1", "lat": 22.324073119110388, "lng": 114.16820607338263}, {"station": "PRE", "name_en": "Prince Edward", "name_zh": "太子", "exit": "C2", "lat": 22.32404268724928, "lng": 114.16803223113651}, {"station": "PRE", "name_en": "Prince Edward", "name_zh": "太子", "exit": "D", "lat": 22.325099891877134, "lng": 114.1676788258682}, {"station": "PRE", "name_en": "Prince Edward", "name_zh": "太子", "exit": "E", "lat": 22.32515410593757, "lng": 114.16796334981666}, {"station": "MOK", "name_en": "Mong Kok", "name_zh": "旺角", "exit": "A1", "lat": 22.320248860289187, "lng": 114.16896798578026}, {"station": "MOK", "name_en": "Mong Kok", "name_zh": "旺角", "exit": "A2", "lat": 22.320194921757473, "lng": 114.16867064476337}, {"station": "MOK", "name_en": "Mong Kok", "name_zh": "旺角", "exit": "B1", "lat": 22.32033900857196, "lng": 114.16937571247553}, {"station": "MOK", "name_en": "Mong Kok", "name_zh": "旺角", "exit": "B2", "lat": 22.32039036037129, "lng": 114.1696551225882}, {"station": "MOK", "name_en": "Mong Kok", "name_zh": "旺角", "exit": "B3", "lat": 22.320565334442595, "lng": 114.16970236919516}, {"station": "MOK", "name_en": "Mong Kok", "name_zh": "旺角", "exit": "B4", "lat": 22.32051037794552, "lng": 114.16948165456782}, {"station": "MOK", "name_en": "Mong Kok", "name_zh": "旺角", "exit": "C1", "lat": 22.319348278045762, "lng": 114.16914244756657}, {"station": "MOK", "name_en": "Mong Kok", "name_zh": "旺角", "exit": "C2", "lat": 22.31929867975141, "lng": 114.16887817761688}, {"station": "MOK", "name_en": "Mong Kok", "name_zh": "旺角", "exit": "C3", "lat": 22.31862325920103, "lng": 114.16863403873808}, {"station": "MOK", "name_en": "Mong Kok", "name_zh": "旺角", "exit": "C4", "lat": 22.319134861728898, "lng": 114.16884027972539}, {"station": "MOK", "name_en": "Mong Kok", "name_zh": "旺角", "exit": "D1", "lat": 22.319424318317974, "lng": 114.16958676885169}, {"station": "MOK", "name_en": "Mong Kok", "name_zh": "旺角", "exit": "D2", "lat": 22.319459482915985, "lng": 114.16981487079525}, {"station": "MOK", "name_en": "Mong Kok", "name_zh": "旺角", "exit": "D3", "lat": 22.31920751663958, "lng": 114.17006233148264}, {"station": "MOK", "name_en": "Mong Kok", "name_zh": "旺角", "exit": "E1", "lat": 22.31833493350507, "lng": 114.16933374239305}, {"station": "MOK", "name_en": "Mong Kok", "name_zh": "旺角", "exit": "E2", "lat": 22.318415665841723, "lng": 114.16978248710308}, {"station": "YMT", "name_en": "Yau Ma Tei", "name_zh": "油麻地", "exit": "A1", "lat": 22.313816792463705, "lng": 114.17023845611963}, {"station": "YMT", "name_en": "Yau Ma Tei", "name_zh": "油麻地", "exit": "A2", "lat": 22.31390838341026, "lng": 114.17074627794373}, {"station": "YMT", "name_en": "Yau Ma Tei", "name_zh": "油麻地", "exit": "B1", "lat": 22.313055325469243, "lng": 114.17041780347675}, {"station": "YMT", "name_en": "Yau Ma Tei", "name_zh": "油麻地", "exit": "B2", "lat": 22.313006250733096, "lng": 114.17013376377061}, {"station": "YMT", "name_en": "Yau Ma Tei", "name_zh": "油麻地", "exit": "C", "lat": 22.31179352167012, "lng": 114.17065925836624}, {"station": "YMT", "name_en": "Yau Ma Tei", "name_zh": "油麻地", "exit": "D", "lat": 22.312928963298745, "lng": 114.1709258882485}, {"station": "HOM", "name_en": "Ho Man Tin", "name_zh": "何文田", "exit": "A1", "lat": 22.310325813795796, "lng": 114.18340171942626}, {"station": "HOM", "name_en": "Ho Man Tin", "name_zh": "何文田", "exit": "A2", "lat": 22.311351213986754, "lng": 114.18352663143189}, {"station": "HOM", "name_en": "Ho Man Tin", "name_zh": "何文田", "exit": "A3", "lat": 22.310385806786083, "lng": 114.18218137565252}, {"station": "HOM", "name_en": "Ho Man Tin", "name_zh": "何文田", "exit": "B1", "lat": 22.30925062337638, "lng": 114.18293688696185}, {"station": "HOM", "name_en": "Ho Man Tin", "name_zh": "何文田", "exit": "B2", "lat": 22.30895998006687, "lng": 114.18228676795012}, {"station": "WHA", "name_en": "Whampoa", "name_zh": "黃埔", "exit": "A", "lat": 22.305808248074854, "lng": 114.1887521393469}, {"station": "WHA", "name_en": "Whampoa", "name_zh": "黃埔", "exit": "B", "lat": 22.305247794491436, "lng": 114.1883882770052}, {"station": "WHA", "name_en": "Whampoa", "name_zh": "黃埔", "exit": "C1", "lat": 22.304418981592722, "lng": 114.18970365700021}, {"station": "WHA", "name_en": "Whampoa", "name_zh": "黃埔", "exit": "C2", "lat": 22.30451146995617, "lng": 114.18979089153429}, {"station": "WHA", "name_en": "Whampoa", "name_zh": "黃埔", "exit": "D1", "lat": 22.304151061792385, "lng": 114.19057954952841}, {"station": "WHA", "name_en": "Whampoa", "name_zh": "黃埔", "exit": "D2", "lat": 22.304058610688486, "lng": 114.19084802851586}, {"station": "WKS", "name_en": "Wu Kai Sha", "name_zh": "烏溪沙", "exit": "A1", "lat": 22.429739351613797, "lng": 114.24375267512423}, {"station": "WKS", "name_en": "Wu Kai Sha", "name_zh": "烏溪沙", "exit": "A2", "lat": 22.429396185854213, "lng": 114.24377193782007}, {"station": "WKS", "name_en": "Wu Kai Sha", "name_zh": "烏溪沙", "exit": "B", "lat": 22.42905616775742, "lng": 114.24387475767959}, {"station": "MOS", "name_en": "Ma On Shan", "name_zh": "馬鞍山", "exit": "A1", "lat": 22.42505606148564, "lng": 114.23124165153395}, {"station": "MOS", "name_en": "Ma On Shan", "name_zh": "馬鞍山", "exit": "A2", "lat": 22.42519137078429, "lng": 114.23167880290504}, {"station": "MOS", "name_en": "Ma On Shan", "name_zh": "馬鞍山", "exit": "B", "lat": 22.424713498932157, "lng": 114.23156405690816}, {"station": "HEO", "name_en": "Heng On", "name_zh": "恆安", "exit": "A", "lat": 22.41782438898434, "lng": 114.22579967128904}, {"station": "HEO", "name_en": "Heng On", "name_zh": "恆安", "exit": "B", "lat": 22.41778822874649, "lng": 114.22592592487091}, {"station": "HEO", "name_en": "Heng On", "name_zh": "恆安", "exit": "C", "lat": 22.41841259880818, "lng": 114.22608628268543}, {"station": "TSH", "name_en": "Tai Shui Hang", "name_zh": "大水坑", "exit": "A", "lat": 22.40769320585388, "lng": 114.22229005736837}, {"station": "TSH", "name_en": "Tai Shui Hang", "name_zh": "大水坑", "exit": "B", "lat": 22.407648028782447, "lng": 114.22237745143454}, {"station": "SHM", "name_en": "Shek Mun", "name_zh": "石門", "exit": "A", "lat": 22.387463232174724, "lng": 114.20805315304982}, {"station": "SHM", "name_en": "Shek Mun", "name_zh": "石門", "exit": "B", "lat": 22.38739164593537, "lng": 114.2081300991549}, {"station": "SHM", "name_en": "Shek Mun", "name_zh": "石門", "exit": "C", "lat": 22.388027103122415, "lng": 114.20862895781706}, {"station": "SHM", "name_en": "Shek Mun", "name_zh": "石門", "exit": "D", "lat": 22.387964107513135, "lng": 114.20869359192656}, {"station": "CIO", "name_en": "City One", "name_zh": "第一城", "exit": "A", "lat": 22.382518549854908, "lng": 114.20308511188047}, {"station": "CIO", "name_en": "City One", "name_zh": "第一城", "exit": "B", "lat": 22.382449283573003, "lng": 114.20315956648045}, {"station": "CIO", "name_en": "City One", "name_zh": "第一城", "exit": "C", "lat": 22.383150038748834, "lng": 114.20374948464398}, {"station": "CIO", "name_en": "City One", "name_zh": "第一城", "exit": "D", "lat": 22.383094623407768, "lng": 114.20382692164965}, {"station": "STW", "name_en": "Sha Tin Wai", "name_zh": "沙田圍", "exit": "A", "lat": 22.376820937884894, "lng": 114.19463672687337}, {"station": "STW", "name_en": "Sha Tin Wai", "name_zh": "沙田圍", "exit": "B", "lat": 22.37676765874978, "lng": 114.19468098490628}, {"station": "STW", "name_en": "Sha Tin Wai", "name_zh": "沙田圍", "exit": "C", "lat": 22.377358428609583, "lng": 114.1953892675555}, {"station": "STW", "name_en": "Sha Tin Wai", "name_zh": "沙田圍", "exit": "D", "lat": 22.377309992498517, "lng": 114.19543612149566}, {"station": "CKT", "name_en": "Che Kung Temple", "name_zh": "車公廟", "exit": "A", "lat": 22.374886738205728, "lng": 114.1857755823213}, {"station": "CKT", "name_en": "Che Kung Temple", "name_zh": "車公廟", "exit": "B", "lat": 22.374663621356515, "lng": 114.18575948330574}, {"station": "CKT", "name_en": "Che Kung Temple", "name_zh": "車公廟", "exit": "C", "lat": 22.374861970361636, "lng": 114.18633779330385}, {"station": "CKT", "name_en": "Che Kung Temple", "name_zh": "車公廟", "exit": "D", "lat": 22.374638379189978, "lng": 114.18632176259375}, {"station": "CKT", "name_en": "Che Kung Temple", "name_zh": "車公廟", "exit": "E", "lat": 22.37485168525822, "lng": 114.18658303248219}, {"station": "CKT", "name_en": "Che Kung Temple", "name_zh": "車公廟", "exit": "F", "lat": 22.374834320907894, "lng": 114.18695069228215}, {"station": "HIK", "name_en": "Hin Keng", "name_zh": "顯徑", "exit": "A", "lat": 22.36367271935919, "lng": 114.17091338674854}, {"station": "KAT", "name_en": "Kai Tak", "name_zh": "啟德", "exit": "A", "lat": 22.330841266227186, "lng": 114.20053457300736}, {"station": "KAT", "name_en": "Kai Tak", "name_zh": "啟德", "exit": "B", "lat": 22.33150987131086, "lng": 114.19978918386165}, {"station": "KAT", "name_en": "Kai Tak", "name_zh": "啟德", "exit": "C", "lat": 22.330943629690843, "lng": 114.19865702978852}, {"station": "KAT", "name_en": "Kai Tak", "name_zh": "啟德", "exit": "D", "lat": 22.329793751466035, "lng": 114.19882909605678}, {"station": "SUW", "name_en": "Sung Wong Toi", "name_zh": "宋皇臺", "exit": "A", "lat": 22.326154863137656, "lng": 114.19192988011432}, {"station": "SUW", "name_en": "Sung Wong Toi", "name_zh": "宋皇臺", "exit": "B1", "lat": 22.326979539390038, "lng": 114.18969520415372}, {"station": "SUW", "name_en": "Sung Wong Toi", "name_zh": "宋皇臺", "exit": "B2", "lat": 22.32803621466608, "lng": 114.18984025889762}, {"station": "SUW", "name_en": "Sung Wong Toi", "name_zh": "宋皇臺", "exit": "B3", "lat": 22.32854189862984, "lng": 114.1898611167404}, {"station": "SUW", "name_en": "Sung Wong Toi", "name_zh": "宋皇臺", "exit": "D", "lat": 22.325642416884758, "lng": 114.19119643847108}, {"station": "TKW", "name_en": "To Kwa Wan", "name_zh": "土瓜灣", "exit": "A", "lat": 22.317812582672783, "lng": 114.18791176638157}, {"station": "TKW", "name_en": "To Kwa Wan", "name_zh": "土瓜灣", "exit": "B", "lat": 22.317930521100084, "lng": 114.18710661577109}, {"station": "TKW", "name_en": "To Kwa Wan", "name_zh": "土瓜灣", "exit": "C", "lat": 22.31627837948322, "lng": 114.18715284950036}, {"station": "TKW", "name_en": "To Kwa Wan", "name_zh": "土瓜灣", "exit": "D", "lat": 22.315322642432015, "lng": 114.1878648272385}, {"station": "ETS", "name_en": "East Tsim Sha Tsui", "name_zh": "尖東", "exit": "J", "lat": 22.295054577566294, "lng": 114.17368958092696}, {"station": "ETS", "name_en": "East Tsim Sha Tsui", "name_zh": "尖東", "exit": "K", "lat": 22.295482440144333, "lng": 114.1737252358001}, {"station": "ETS", "name_en": "East Tsim Sha Tsui", "name_zh": "尖東", "exit": "L1", "lat": 22.29576561873963, "lng": 114.173126577715}, {"station": "ETS", "name_en": "East Tsim Sha Tsui", "name_zh": "尖東", "exit": "L3", "lat": 22.295645793427234, "lng": 114.17205175538106}, {"station": "ETS", "name_en": "East Tsim Sha Tsui", "name_zh": "尖東", "exit": "L4", "lat": 22.29567432710392, "lng": 114.17175087497857}, {"station": "ETS", "name_en": "East Tsim Sha Tsui", "name_zh": "尖東", "exit": "L5", "lat": 22.29614498467605, "lng": 114.17046171113485}, {"station": "ETS", "name_en": "East Tsim Sha Tsui", "name_zh": "尖東", "exit": "L6", "lat": 22.295106472626575, "lng": 114.17070436543722}, {"station": "ETS", "name_en": "East Tsim Sha Tsui", "name_zh": "尖東", "exit": "N1", "lat": 22.297428735910593, "lng": 114.1744006081191}, {"station": "ETS", "name_en": "East Tsim Sha Tsui", "name_zh": "尖東", "exit": "N2", "lat": 22.297767977470183, "lng": 114.17399689982753}, {"station": "ETS", "name_en": "East Tsim Sha Tsui", "name_zh": "尖東", "exit": "N3", "lat": 22.297328101112395, "lng": 114.17430461718939}, {"station": "ETS", "name_en": "East Tsim Sha Tsui", "name_zh": "尖東", "exit": "N4", "lat": 22.297228754202337, "lng": 114.1737223527692}, {"station": "ETS", "name_en": "East Tsim Sha Tsui", "name_zh": "尖東", "exit": "N5", "lat": 22.297025504685703, "lng": 114.17263476320149}, {"station": "ETS", "name_en": "East Tsim Sha Tsui", "name_zh": "尖東", "exit": "P1", "lat": 22.296978300162632, "lng": 114.17613419767214}, {"station": "ETS", "name_en": "East Tsim Sha Tsui", "name_zh": "尖東", "exit": "P2", "lat": 22.297310148540202, "lng": 114.17618663883921}, {"station": "ETS", "name_en": "East Tsim Sha Tsui", "name_zh": "尖東", "exit": "P3", "lat": 22.297228425543267, "lng": 114.17535985788551}, {"station": "AUS", "name_en": "Austin", "name_zh": "柯士甸", "exit": "A", "lat": 22.305906099693786, "lng": 114.16635017510214}, {"station": "AUS", "name_en": "Austin", "name_zh": "柯士甸", "exit": "B1", "lat": 22.305315676827096, "lng": 114.16593771958578}, {"station": "AUS", "name_en": "Austin", "name_zh": "柯士甸", "exit": "B2", "lat": 22.305086082017645, "lng": 114.16606297296504}, {"station": "AUS", "name_en": "Austin", "name_zh": "柯士甸", "exit": "B3", "lat": 22.305201551353136, "lng": 114.16633696026669}, {"station": "AUS", "name_en": "Austin", "name_zh": "柯士甸", "exit": "B4", "lat": 22.305389669816257, "lng": 114.16591435148642}, {"station": "AUS", "name_en": "Austin", "name_zh": "柯士甸", "exit": "B5", "lat": 22.30585871343769, "lng": 114.16578877316142}, {"station": "AUS", "name_en": "Austin", "name_zh": "柯士甸", "exit": "C", "lat": 22.304250245147383, "lng": 114.16648582941369}, {"station": "AUS", "name_en": "Austin", "name_zh": "柯士甸", "exit": "D1", "lat": 22.303725030521147, "lng": 114.16672005667375}, {"station": "AUS", "name_en": "Austin", "name_zh": "柯士甸", "exit": "D2", "lat": 22.303424572329966, "lng": 114.16673922046134}, {"station": "AUS", "name_en": "Austin", "name_zh": "柯士甸", "exit": "D3", "lat": 22.303598074603872, "lng": 114.16710475741213}, {"station": "AUS", "name_en": "Austin", "name_zh": "柯士甸", "exit": "D4", "lat": 22.30381253658145, "lng": 114.16671096659823}, {"station": "AUS", "name_en": "Austin", "name_zh": "柯士甸", "exit": "E", "lat": 22.303143977362645, "lng": 114.16707241348232}, {"station": "AUS", "name_en": "Austin", "name_zh": "柯士甸", "exit": "F", "lat": 22.303153228338356, "lng": 114.1675846827397}, {"station": "NAC", "name_en": "Nam Cheong", "name_zh": "南昌", "exit": "A", "lat": 22.327823363459057, "lng": 114.15350499695163}, {"station": "NAC", "name_en": "Nam Cheong", "name_zh": "南昌", "exit": "A1", "lat": 22.32791369190341, "lng": 114.15359948497434}, {"station": "NAC", "name_en": "Nam Cheong", "name_zh": "南昌", "exit": "A2", "lat": 22.32774046624248, "lng": 114.15359258318306}, {"station": "NAC", "name_en": "Nam Cheong", "name_zh": "南昌", "exit": "B", "lat": 22.326250724034438, "lng": 114.15267495662326}, {"station": "NAC", "name_en": "Nam Cheong", "name_zh": "南昌", "exit": "C", "lat": 22.325002737264246, "lng": 114.15427112239666}, {"station": "NAC", "name_en": "Nam Cheong", "name_zh": "南昌", "exit": "D1", "lat": 22.32572377622266, "lng": 114.15524223932692}, {"station": "NAC", "name_en": "Nam Cheong", "name_zh": "南昌", "exit": "D2", "lat": 22.326372390326934, "lng": 114.15451792184903}, {"station": "MEF", "name_en": "Mei Foo", "name_zh": "美孚", "exit": "A", "lat": 22.336675350834945, "lng": 114.14025624835513}, {"station": "MEF", "name_en": "Mei Foo", "name_zh": "美孚", "exit": "B", "lat": 22.337681971402283, "lng": 114.13985236746035}, {"station": "MEF", "name_en": "Mei Foo", "name_zh": "美孚", "exit": "C1", "lat": 22.338381249935093, "lng": 114.13834824613768}, {"station": "MEF", "name_en": "Mei Foo", "name_zh": "美孚", "exit": "C2", "lat": 22.33820655077626, "lng": 114.13870987817583}, {"station": "MEF", "name_en": "Mei Foo", "name_zh": "美孚", "exit": "D", "lat": 22.337941479381225, "lng": 114.13772164501988}, {"station": "MEF", "name_en": "Mei Foo", "name_zh": "美孚", "exit": "E", "lat": 22.33823221395471, "lng": 114.13861024509795}, {"station": "MEF", "name_en": "Mei Foo", "name_zh": "美孚", "exit": "F", "lat": 22.338544389853123, "lng": 114.13682119236256}, {"station": "MEF", "name_en": "Mei Foo", "name_zh": "美孚", "exit": "G", "lat": 22.33967522445251, "lng": 114.1364566479274}, {"station": "TWW", "name_en": "Tsuen Wan West", "name_zh": "荃灣西", "exit": "A1", "lat": 22.368583012467745, "lng": 114.10986425546855}, {"station": "TWW", "name_en": "Tsuen Wan West", "name_zh": "荃灣西", "exit": "A2", "lat": 22.368805110793758, "lng": 114.10999860480624}, {"station": "TWW", "name_en": "Tsuen Wan West", "name_zh": "荃灣西", "exit": "B1", "lat": 22.368504744665447, "lng": 114.10886727714346}, {"station": "TWW", "name_en": "Tsuen Wan West", "name_zh": "荃灣西", "exit": "B2", "lat": 22.368384434572103, "lng": 114.10915635393177}, {"station": "TWW", "name_en": "Tsuen Wan West", "name_zh": "荃灣西", "exit": "C1", "lat": 22.367526095694146, "lng": 114.11016828326545}, {"station": "TWW", "name_en": "Tsuen Wan West", "name_zh": "荃灣西", "exit": "C2", "lat": 22.36772915226054, "lng": 114.11009265786777}, {"station": "TWW", "name_en": "Tsuen Wan West", "name_zh": "荃灣西", "exit": "C3", "lat": 22.367627488768534, "lng": 114.11042757048712}, {"station": "TWW", "name_en": "Tsuen Wan West", "name_zh": "荃灣西", "exit": "C4", "lat": 22.3675341245587, "lng": 114.11032369615846}, {"station": "TWW", "name_en": "Tsuen Wan West", "name_zh": "荃灣西", "exit": "C5", "lat": 22.367531459178373, "lng": 114.11040832365472}, {"station": "TWW", "name_en": "Tsuen Wan West", "name_zh": "荃灣西", "exit": "D", "lat": 22.367171125437213, "lng": 114.1109009488485}, {"station": "TWW", "name_en": "Tsuen Wan West", "name_zh": "荃灣西", "exit": "E1", "lat": 22.36777683411599, "lng": 114.1108209113474}, {"station": "TWW", "name_en": "Tsuen Wan West", "name_zh": "荃灣西", "exit": "E2", "lat": 22.367947647936095, "lng": 114.11084607506747}, {"station": "KSR", "name_en": "Kam Sheung Road", "name_zh": "錦上路", "exit": "A", "lat": 22.435408549276307, "lng": 114.06288360605416}, {"station": "KSR", "name_en": "Kam Sheung Road", "name_zh": "錦上路", "exit": "B", "lat": 22.43549746839099, "lng": 114.0630704018438}, {"station": "KSR", "name_en": "Kam Sheung Road", "name_zh": "錦上路", "exit": "C", "lat": 22.43429747654407, "lng": 114.06393512290836}, {"station": "KSR", "name_en": "Kam Sheung Road", "name_zh": "錦上路", "exit": "D", "lat": 22.43417438212379, "lng": 114.0637282091936}, {"station": "YUL", "name_en": "Yuen Long", "name_zh": "元朗", "exit": "A", "lat": 22.446216993222798, "lng": 114.03381966513018}, {"station": "YUL", "name_en": "Yuen Long", "name_zh": "元朗", "exit": "B", "lat": 22.44599463909843, "lng": 114.03345316587117}, {"station": "YUL", "name_en": "Yuen Long", "name_zh": "元朗", "exit": "E", "lat": 22.44596693097838, "lng": 114.03466757060835}, {"station": "YUL", "name_en": "Yuen Long", "name_zh": "元朗", "exit": "F", "lat": 22.445960771110347, "lng": 114.03522796438897}, {"station": "YUL", "name_en": "Yuen Long", "name_zh": "元朗", "exit": "G1", "lat": 22.446212639197704, "lng": 114.03504649647957}, {"station": "YUL", "name_en": "Yuen Long", "name_zh": "元朗", "exit": "G2", "lat": 22.446223450431322, "lng": 114.03523372755083}, {"station": "YUL", "name_en": "Yuen Long", "name_zh": "元朗", "exit": "H", "lat": 22.44596857932752, "lng": 114.03673338546218}, {"station": "YUL", "name_en": "Yuen Long", "name_zh": "元朗", "exit": "J", "lat": 22.446270275246437, "lng": 114.03641449839367}, {"station": "YUL", "name_en": "Yuen Long", "name_zh": "元朗", "exit": "K", "lat": 22.445940977585497, "lng": 114.03649423810784}, {"station": "LOP", "name_en": "Long Ping", "name_zh": "朗屏", "exit": "A", "lat": 22.447738461930378, "lng": 114.02438132114274}, {"station": "LOP", "name_en": "Long Ping", "name_zh": "朗屏", "exit": "B1", "lat": 22.447524499850317, "lng": 114.02466403330224}, {"station": "LOP", "name_en": "Long Ping", "name_zh": "朗屏", "exit": "B2", "lat": 22.4475267919201, "lng": 114.02349812421974}, {"station": "LOP", "name_en": "Long Ping", "name_zh": "朗屏", "exit": "C", "lat": 22.447571737390327, "lng": 114.02489342683279}, {"station": "LOP", "name_en": "Long Ping", "name_zh": "朗屏", "exit": "D", "lat": 22.44756977094922, "lng": 114.02593945805874}, {"station": "LOP", "name_en": "Long Ping", "name_zh": "朗屏", "exit": "E", "lat": 22.447563632860454, "lng": 114.02647040658938}, {"station": "LOP", "name_en": "Long Ping", "name_zh": "朗屏", "exit": "F", "lat": 22.44779066709603, "lng": 114.02648809155502}, {"station": "TIS", "name_en": "Tin Shui Wai", "name_zh": "天水圍", "exit": "A", "lat": 22.446810055574897, "lng": 114.0035743407447}, {"station": "TIS", "name_en": "Tin Shui Wai", "name_zh": "天水圍", "exit": "B", "lat": 22.446973038044106, "lng": 114.00342427793157}, {"station": "TIS", "name_en": "Tin Shui Wai", "name_zh": "天水圍", "exit": "C", "lat": 22.44809544571327, "lng": 114.00452283406855}, {"station": "TIS", "name_en": "Tin Shui Wai", "name_zh": "天水圍", "exit": "D", "lat": 22.44907678171656, "lng": 114.00544363197056}, {"station": "TIS", "name_en": "Tin Shui Wai", "name_zh": "天水圍", "exit": "E1", "lat": 22.449257793138038, "lng": 114.00561914324106}, {"station": "TIS", "name_en": "Tin Shui Wai", "name_zh": "天水圍", "exit": "E2", "lat": 22.4491707341119, "lng": 114.00571588467163}, {"station": "TIS", "name_en": "Tin Shui Wai", "name_zh": "天水圍", "exit": "E3", "lat": 22.44906247169117, "lng": 114.00582975998651}, {"station": "SIH", "name_en": "Siu Hong", "name_zh": "兆康", "exit": "A", "lat": 22.410982884355565, "lng": 113.97859609802468}, {"station": "SIH", "name_en": "Siu Hong", "name_zh": "兆康", "exit": "B1", "lat": 22.4117682514021, "lng": 113.9786665166091}, {"station": "SIH", "name_en": "Siu Hong", "name_zh": "兆康", "exit": "B2", "lat": 22.412030229317523, "lng": 113.97874384382608}, {"station": "SIH", "name_en": "Siu Hong", "name_zh": "兆康", "exit": "C1", "lat": 22.411827521326636, "lng": 113.97826436131956}, {"station": "SIH", "name_en": "Siu Hong", "name_zh": "兆康", "exit": "C2", "lat": 22.412037637286755, "lng": 113.97815099065758}, {"station": "SIH", "name_en": "Siu Hong", "name_zh": "兆康", "exit": "C3", "lat": 22.412165751145434, "lng": 113.97838465379145}, {"station": "SIH", "name_en": "Siu Hong", "name_zh": "兆康", "exit": "D", "lat": 22.411905974247603, "lng": 113.97862922013334}, {"station": "SIH", "name_en": "Siu Hong", "name_zh": "兆康", "exit": "E", "lat": 22.412728806758174, "lng": 113.97910482461054}, {"station": "SIH", "name_en": "Siu Hong", "name_zh": "兆康", "exit": "F", "lat": 22.41204819872828, "lng": 113.97917803809705}, {"station": "TUM", "name_en": "Tuen Mun", "name_zh": "屯門", "exit": "A", "lat": 22.394362507105736, "lng": 113.97271693069484}, {"station": "TUM", "name_en": "Tuen Mun", "name_zh": "屯門", "exit": "B", "lat": 22.394093432425517, "lng": 113.97294141591271}, {"station": "TUM", "name_en": "Tuen Mun", "name_zh": "屯門", "exit": "C1", "lat": 22.394192091439006, "lng": 113.97351612104512}, {"station": "TUM", "name_en": "Tuen Mun", "name_zh": "屯門", "exit": "C2", "lat": 22.3944429313567, "lng": 113.9737753055708}, {"station": "TUM", "name_en": "Tuen Mun", "name_zh": "屯門", "exit": "C3", "lat": 22.394333759857957, "lng": 113.97313453037765}, {"station": "TUM", "name_en": "Tuen Mun", "name_zh": "屯門", "exit": "D", "lat": 22.395362775676713, "lng": 113.97338496061845}, {"station": "TUM", "name_en": "Tuen Mun", "name_zh": "屯門", "exit": "E", "lat": 22.39619896884353, "lng": 113.97359773809755}, {"station": "TUM", "name_en": "Tuen Mun", "name_zh": "屯門", "exit": "F1", "lat": 22.396420293544242, "lng": 113.97327412616866}, {"station": "TUM", "name_en": "Tuen Mun", "name_zh": "屯門", "exit": "F2", "lat": 22.396367820565914, "lng": 113.97350409697944}, {"station": "TUC", "name_en": "Tung Chung", "name_zh": "東涌", "exit": "A", "lat": 22.28892007110548, "lng": 113.94110893665157}, {"station": "TUC", "name_en": "Tung Chung", "name_zh": "東涌", "exit": "B", "lat": 22.288986809071073, "lng": 113.94090695507377}, {"station": "TUC", "name_en": "Tung Chung", "name_zh": "東涌", "exit": "C", "lat": 22.289678727629358, "lng": 113.94172533588447}, {"station": "TUC", "name_en": "Tung Chung", "name_zh": "東涌", "exit": "D", "lat": 22.289430064005526, "lng": 113.94179788622222}, {"station": "OLY", "name_en": "Olympic", "name_zh": "奧運", "exit": "A1", "lat": 22.3182090712442, "lng": 114.1591359408079}, {"station": "OLY", "name_en": "Olympic", "name_zh": "奧運", "exit": "A2", "lat": 22.31816166079571, "lng": 114.15913756766643}, {"station": "OLY", "name_en": "Olympic", "name_zh": "奧運", "exit": "B", "lat": 22.31864949842501, "lng": 114.16056398474669}, {"station": "OLY", "name_en": "Olympic", "name_zh": "奧運", "exit": "C1", "lat": 22.318340962125497, "lng": 114.16068449977818}, {"station": "OLY", "name_en": "Olympic", "name_zh": "奧運", "exit": "C2", "lat": 22.318056015443403, "lng": 114.16100729174063}, {"station": "OLY", "name_en": "Olympic", "name_zh": "奧運", "exit": "C3", "lat": 22.318125982712104, "lng": 114.16071406920496}, {"station": "OLY", "name_en": "Olympic", "name_zh": "奧運", "exit": "C4", "lat": 22.31812241023489, "lng": 114.16102628837022}, {"station": "OLY", "name_en": "Olympic", "name_zh": "奧運", "exit": "C5", "lat": 22.31818197848249, "lng": 114.16130770183958}, {"station": "OLY", "name_en": "Olympic", "name_zh": "奧運", "exit": "D1", "lat": 22.31704118260381, "lng": 114.16124607722193}, {"station": "OLY", "name_en": "Olympic", "name_zh": "奧運", "exit": "D2", "lat": 22.316733455628054, "lng": 114.16116087275928}, {"station": "OLY", "name_en": "Olympic", "name_zh": "奧運", "exit": "D3", "lat": 22.316906892235, "lng": 114.16112185260005}, {"station": "OLY", "name_en": "Olympic", "name_zh": "奧運", "exit": "E", "lat": 22.317859436575592, "lng": 114.1591559187783}, {"station": "POA", "name_en": "Po Lam", "name_zh": "寶琳", "exit": "A1", "lat": 22.322915742448338, "lng": 114.25742140325238}, {"station": "POA", "name_en": "Po Lam", "name_zh": "寶琳", "exit": "A2", "lat": 22.32305316107039, "lng": 114.25757160518478}, {"station": "POA", "name_en": "Po Lam", "name_zh": "寶琳", "exit": "B1", "lat": 22.322068517044777, "lng": 114.25833806841052}, {"station": "POA", "name_en": "Po Lam", "name_zh": "寶琳", "exit": "B2", "lat": 22.321852504967243, "lng": 114.25824177615773}, {"station": "POA", "name_en": "Po Lam", "name_zh": "寶琳", "exit": "B3", "lat": 22.321808533980963, "lng": 114.25830160533863}, {"station": "POA", "name_en": "Po Lam", "name_zh": "寶琳", "exit": "C", "lat": 22.322481282127608, "lng": 114.25776361675031}, {"station": "HAH", "name_en": "Hang Hau", "name_zh": "坑口", "exit": "A1", "lat": 22.31605215429989, "lng": 114.26415026941952}, {"station": "HAH", "name_en": "Hang Hau", "name_zh": "坑口", "exit": "A2", "lat": 22.315880693175924, "lng": 114.26392693126046}, {"station": "HAH", "name_en": "Hang Hau", "name_zh": "坑口", "exit": "B1", "lat": 22.315180549442577, "lng": 114.26466727241349}, {"station": "HAH", "name_en": "Hang Hau", "name_zh": "坑口", "exit": "B2", "lat": 22.31519409659745, "lng": 114.2644312001643}, {"station": "TKO", "name_en": "Tseung Kwan O", "name_zh": "將軍澳", "exit": "A1", "lat": 22.30773677141018, "lng": 114.26074829414206}, {"station": "TKO", "name_en": "Tseung Kwan O", "name_zh": "將軍澳", "exit": "A2", "lat": 22.307565164934918, "lng": 114.2607967173227}, {"station": "TKO", "name_en": "Tseung Kwan O", "name_zh": "將軍澳", "exit": "B1", "lat": 22.307007283494926, "lng": 114.25915427997704}, {"station": "TKO", "name_en": "Tseung Kwan O", "name_zh": "將軍澳", "exit": "B2", "lat": 22.307187934861055, "lng": 114.25907674492295}, {"station": "TKO", "name_en": "Tseung Kwan O", "name_zh": "將軍澳", "exit": "C", "lat": 22.307539717780813, "lng": 114.2598824777303}, {"station": "LHP", "name_en": "LOHAS Park", "name_zh": "康城", "exit": "B", "lat": 22.295337441806062, "lng": 114.26837867529704}, {"station": "LHP", "name_en": "LOHAS Park", "name_zh": "康城", "exit": "C1", "lat": 22.296270597937202, "lng": 114.2695787423624}, {"station": "LHP", "name_en": "LOHAS Park", "name_zh": "康城", "exit": "C2", "lat": 22.29606445144976, "lng": 114.26952375732873}, {"station": "TSW", "name_en": "Tsuen Wan", "name_zh": "荃灣", "exit": "A", "lat": 22.37404875963604, "lng": 114.11676539875825}, {"station": "TSW", "name_en": "Tsuen Wan", "name_zh": "荃灣", "exit": "A1", "lat": 22.373778921016118, "lng": 114.11691871468204}, {"station": "TSW", "name_en": "Tsuen Wan", "name_zh": "荃灣", "exit": "A2", "lat": 22.373878145113924, "lng": 114.1166176703425}, {"station": "TSW", "name_en": "Tsuen Wan", "name_zh": "荃灣", "exit": "A3", "lat": 22.374094681853343, "lng": 114.11609325054881}, {"station": "TSW", "name_en": "Tsuen Wan", "name_zh": "荃灣", "exit": "A4", "lat": 22.374130974609166, "lng": 114.11654959329697}, {"station": "TSW", "name_en": "Tsuen Wan", "name_zh": "荃灣", "exit": "B1", "lat": 22.373139413711066, "lng": 114.11824727352277}, {"station": "TSW", "name_en": "Tsuen Wan", "name_zh": "荃灣", "exit": "B2", "lat": 22.37301309147962, "lng": 114.11853861672817}, {"station": "TSW", "name_en": "Tsuen Wan", "name_zh": "荃灣", "exit": "B3", "lat": 22.3731835262389, "lng": 114.1186181652115}, {"station": "TSW", "name_en": "Tsuen Wan", "name_zh": "荃灣", "exit": "C", "lat": 22.373426278771106, "lng": 114.11853345222599}, {"station": "TSW", "name_en": "Tsuen Wan", "name_zh": "荃灣", "exit": "D", "lat": 22.373803746828802, "lng": 114.11726358404995}, {"station": "TSW", "name_en": "Tsuen Wan", "name_zh": "荃灣", "exit": "E", "lat": 22.373339262187027, "lng": 114.11829051165559}, {"station": "TWH", "name_en": "Tai Wo Hau", "name_zh": "大窩口", "exit": "A", "lat": 22.370985466824347, "lng": 114.12590058205333}, {"station": "TWH", "name_en": "Tai Wo Hau", "name_zh": "大窩口", "exit": "B", "lat": 22.370644473972693, "lng": 114.12437426361882}, {"station": "KWH", "name_en": "Kwai Hing", "name_zh": "葵興", "exit": "A", "lat": 22.363740174316376, "lng": 114.13128361852903}, {"station": "KWH", "name_en": "Kwai Hing", "name_zh": "葵興", "exit": "B", "lat": 22.362756308762165, "lng": 114.13123829372573}, {"station": "KWH", "name_en": "Kwai Hing", "name_zh": "葵興", "exit": "C", "lat": 22.36260922253052, "lng": 114.13109877572357}, {"station": "KWH", "name_en": "Kwai Hing", "name_zh": "葵興", "exit": "D", "lat": 22.363598296391075, "lng": 114.13113569493092}, {"station": "KWH", "name_en": "Kwai Hing", "name_zh": "葵興", "exit": "E", "lat": 22.36266992768018, "lng": 114.13128850747141}, {"station": "KWF", "name_en": "Kwai Fong", "name_zh": "葵芳", "exit": "A", "lat": 22.35726360160967, "lng": 114.12823060056704}, {"station": "KWF", "name_en": "Kwai Fong", "name_zh": "葵芳", "exit": "B", "lat": 22.35627440977495, "lng": 114.12747534660384}, {"station": "KWF", "name_en": "Kwai Fong", "name_zh": "葵芳", "exit": "C", "lat": 22.356368487907694, "lng": 114.12733872470726}, {"station": "KWF", "name_en": "Kwai Fong", "name_zh": "葵芳", "exit": "D", "lat": 22.357357600654893, "lng": 114.12807697043216}, {"station": "KWF", "name_en": "Kwai Fong", "name_zh": "葵芳", "exit": "E", "lat": 22.3571024815397, "lng": 114.12789336518935}, {"station": "CSW", "name_en": "Cheung Sha Wan", "name_zh": "長沙灣", "exit": "A", "lat": 22.335159898272018, "lng": 114.15682175639243}, {"station": "CSW", "name_en": "Cheung Sha Wan", "name_zh": "長沙灣", "exit": "A1", "lat": 22.334312729292, "lng": 114.15722227265589}, {"station": "CSW", "name_en": "Cheung Sha Wan", "name_zh": "長沙灣", "exit": "A2", "lat": 22.334905961536506, "lng": 114.1577763822657}, {"station": "CSW", "name_en": "Cheung Sha Wan", "name_zh": "長沙灣", "exit": "A3", "lat": 22.33489674513956, "lng": 114.1571747810451}, {"station": "CSW", "name_en": "Cheung Sha Wan", "name_zh": "長沙灣", "exit": "B", "lat": 22.33576068687397, "lng": 114.15539111212217}, {"station": "CSW", "name_en": "Cheung Sha Wan", "name_zh": "長沙灣", "exit": "C1", "lat": 22.33560344377827, "lng": 114.1564844675673}, {"station": "CSW", "name_en": "Cheung Sha Wan", "name_zh": "長沙灣", "exit": "C2", "lat": 22.336486440322172, "lng": 114.15511892256153}, {"station": "SSP", "name_en": "Sham Shui Po", "name_zh": "深水埗", "exit": "A1", "lat": 22.33027579971783, "lng": 114.16264167102432}, {"station": "SSP", "name_en": "Sham Shui Po", "name_zh": "深水埗", "exit": "A2", "lat": 22.329988890213272, "lng": 114.16244748137929}, {"station": "SSP", "name_en": "Sham Shui Po", "name_zh": "深水埗", "exit": "B1", "lat": 22.33049079471192, "lng": 114.16289511156397}, {"station": "SSP", "name_en": "Sham Shui Po", "name_zh": "深水埗", "exit": "B2", "lat": 22.330794068589594, "lng": 114.16310501917302}, {"station": "SSP", "name_en": "Sham Shui Po", "name_zh": "深水埗", "exit": "C1", "lat": 22.330949175955045, "lng": 114.1617610389433}, {"station": "SSP", "name_en": "Sham Shui Po", "name_zh": "深水埗", "exit": "C2", "lat": 22.330664862217148, "lng": 114.16157029772316}, {"station": "SSP", "name_en": "Sham Shui Po", "name_zh": "深水埗", "exit": "D1", "lat": 22.331167147110698, "lng": 114.16203863047971}, {"station": "SSP", "name_en": "Sham Shui Po", "name_zh": "深水埗", "exit": "D2", "lat": 22.331462635244844, "lng": 114.16223919428832}, {"station": "JOR", "name_en": "Jordan", "name_zh": "佐敦", "exit": "A", "lat": 22.305424164759, "lng": 114.1712772173626}, {"station": "JOR", "name_en": "Jordan", "name_zh": "佐敦", "exit": "B1", "lat": 22.30552440035352, "lng": 114.17185557569303}, {"station": "JOR", "name_en": "Jordan", "name_zh": "佐敦", "exit": "B2", "lat": 22.30570811370516, "lng": 114.17224013070283}, {"station": "JOR", "name_en": "Jordan", "name_zh": "佐敦", "exit": "C1", "lat": 22.30432628918451, "lng": 114.17147723029}, {"station": "JOR", "name_en": "Jordan", "name_zh": "佐敦", "exit": "C2", "lat": 22.304306638310578, "lng": 114.17118433415152}, {"station": "JOR", "name_en": "Jordan", "name_zh": "佐敦", "exit": "D", "lat": 22.303782974835677, "lng": 114.17190548088566}, {"station": "JOR", "name_en": "Jordan", "name_zh": "佐敦", "exit": "E", "lat": 22.3042996826801, "lng": 114.17196560497275}, {"station": "TST", "name_en": "Tsim Sha Tsui", "name_zh": "尖沙咀", "exit": "A1", "lat": 22.29831252437219, "lng": 114.17187987187629}, {"station": "TST", "name_en": "Tsim Sha Tsui", "name_zh": "尖沙咀", "exit": "A2", "lat": 22.298188915611394, "lng": 114.17242138953674}, {"station": "TST", "name_en": "Tsim Sha Tsui", "name_zh": "尖沙咀", "exit": "B1", "lat": 22.29874694192379, "lng": 114.17229915983059}, {"station": "TST", "name_en": "Tsim Sha Tsui", "name_zh": "尖沙咀", "exit": "B2", "lat": 22.298761743917662, "lng": 114.17254521152898}, {"station": "TST", "name_en": "Tsim Sha Tsui", "name_zh": "尖沙咀", "exit": "C1", "lat": 22.296874754739424, "lng": 114.17212071071673}, {"station": "TST", "name_en": "Tsim Sha Tsui", "name_zh": "尖沙咀", "exit": "C2", "lat": 22.297207307937175, "lng": 114.17210251200815}, {"station": "TST", "name_en": "Tsim Sha Tsui", "name_zh": "尖沙咀", "exit": "D1", "lat": 22.29764028405804, "lng": 114.17236845433004}, {"station": "TST", "name_en": "Tsim Sha Tsui", "name_zh": "尖沙咀", "exit": "D2", "lat": 22.297663655081195, "lng": 114.17270152059191}, {"station": "TST", "name_en": "Tsim Sha Tsui", "name_zh": "尖沙咀", "exit": "D3", "lat": 22.297604304921116, "lng": 114.17303315293769}, {"station": "TST", "name_en": "Tsim Sha Tsui", "name_zh": "尖沙咀", "exit": "E", "lat": 22.29618928788753, "lng": 114.17215489954702}, {"station": "TST", "name_en": "Tsim Sha Tsui", "name_zh": "尖沙咀", "exit": "H", "lat": 22.29661463097829, "lng": 114.17203380173251}, {"station": "TST", "name_en": "Tsim Sha Tsui", "name_zh": "尖沙咀", "exit": "R", "lat": 22.29729192656346, "lng": 114.17200466529958}, {"station": "OCP", "name_en": "Ocean Park", "name_zh": "海洋公園", "exit": "A", "lat": 22.24833651672256, "lng": 114.17389360865675}, {"station": "OCP", "name_en": "Ocean Park", "name_zh": "海洋公園", "exit": "B", "lat": 22.248118740409435, "lng": 114.17450897872169}, {"station": "OCP", "name_en": "Ocean Park", "name_zh": "海洋公園", "exit": "C", "lat": 22.249000834209994, "lng": 114.17487127159679}, {"station": "WCH", "name_en": "Wong Chuk Hang", "name_zh": "黃竹坑", "exit": "A1", "lat": 22.248141745885412, "lng": 114.16770586827066}, {"station": "WCH", "name_en": "Wong Chuk Hang", "name_zh": "黃竹坑", "exit": "A2", "lat": 22.248193108213393, "lng": 114.16795414928211}, {"station": "WCH", "name_en": "Wong Chuk Hang", "name_zh": "黃竹坑", "exit": "B", "lat": 22.24774390553534, "lng": 114.16684964226586}, {"station": "LET", "name_en": "Lei Tung", "name_zh": "利東", "exit": "A1", "lat": 22.243640308397843, "lng": 114.15534710048064}, {"station": "LET", "name_en": "Lei Tung", "name_zh": "利東", "exit": "A2", "lat": 22.2435605395909, "lng": 114.15540927495304}, {"station": "LET", "name_en": "Lei Tung", "name_zh": "利東", "exit": "B", "lat": 22.24098218720266, "lng": 114.1561527295589}, {"station": "SOH", "name_en": "South Horizons", "name_zh": "海怡半島", "exit": "A", "lat": 22.24346701039209, "lng": 114.14892865315221}, {"station": "SOH", "name_en": "South Horizons", "name_zh": "海怡半島", "exit": "B", "lat": 22.242937061229764, "lng": 114.14820494490924}, {"station": "SOH", "name_en": "South Horizons", "name_zh": "海怡半島", "exit": "C", "lat": 22.242751609139013, "lng": 114.14901795975021}]